FLOCK 4BE-12            
1 60560U 24149CW  26061.73930409  .00107563  00000+0  22566-2 0  9991
2 60560  97.3775 145.5936 0005581 285.1483  74.9148 15.44968205 85998
FLOCK 4BE-3             
1 60561U 24149CX  26061.76825859  .00020908  00000+0  56276-3 0  9990
2 60561  97.3761 144.9220 0003157 312.2533  47.8444 15.37881988 85967
FLOCK 4BE-19            
1 60563U 24149CZ  26061.78455475  .00024237  00000+0  60875-3 0  9996
2 60563  97.3798 146.0167 0003207 318.4974  41.6028 15.39978926 86024
PELICAN-2               
1 62631U 25009Y   26061.77481824  .00131712  00000+0  32135-2 0  9990
2 62631  97.4033 151.9962 0007277 218.6770 141.3956 15.40335051 63176
PELICAN-3               
1 65315U 25188A   26061.66052410  .00004143  00000+0  10375-3 0  9993
2 65315  97.2276 139.2926 0003169 183.0757 177.0471 15.40637623 28911
PELICAN-4               
1 65316U 25188B   26061.15652379  .00011483  00000+0  28389-3 0  9997
2 65316  97.2317 138.8769 0005426 116.0341 244.1465 15.40610117 28830
