[{"OBJECT_NAME":"FLOCK 4BE-12","OBJECT_ID":"2024-149CW","EPOCH":"2026-03-02T17:44:35.873376","MEAN_MOTION":15.44968205,"ECCENTRICITY":0.0005581,"INCLINATION":97.3775,"RA_OF_ASC_NODE":145.5936,"ARG_OF_PERICENTER":285.1483,"MEAN_ANOMALY":74.9148,"EPHEMERIS_TYPE":0,"CLASSIFICATION_TYPE":"U","NORAD_CAT_ID":60560,"ELEMENT_SET_NO":999,"REV_AT_EPOCH":8599,"BSTAR":0.0022566,"MEAN_MOTION_DOT":0.00107563,"MEAN_MOTION_DDOT":0},{"OBJECT_NAME":"FLOCK 4BE-3","OBJECT_ID":"2024-149CX","EPOCH":"2026-03-02T18:26:17.542176","MEAN_MOTION":15.37881988,"ECCENTRICITY":0.0003157,"INCLINATION":97.3761,"RA_OF_ASC_NODE":144.922,"ARG_OF_PERICENTER":312.2533,"MEAN_ANOMALY":47.8444,"EPHEMERIS_TYPE":0,"CLASSIFICATION_TYPE":"U","NORAD_CAT_ID":60561,"ELEMENT_SET_NO":999,"REV_AT_EPOCH":8596,"BSTAR":0.00056276,"MEAN_MOTION_DOT":0.00020908,"MEAN_MOTION_DDOT":0},{"OBJECT_NAME":"FLOCK 4BE-19","OBJECT_ID":"2024-149CZ","EPOCH":"2026-03-02T18:49:45.530400","MEAN_MOTION":15.39978926,"ECCENTRICITY":0.0003207,"INCLINATION":97.3798,"RA_OF_ASC_NODE":146.0167,"ARG_OF_PERICENTER":318.4974,"MEAN_ANOMALY":41.6028,"EPHEMERIS_TYPE":0,"CLASSIFICATION_TYPE":"U","NORAD_CAT_ID":60563,"ELEMENT_SET_NO":999,"REV_AT_EPOCH":8602,"BSTAR":0.00060875,"MEAN_MOTION_DOT":0.00024237,"MEAN_MOTION_DDOT":0},{"OBJECT_NAME":"PELICAN-2","OBJECT_ID":"2025-009Y","EPOCH":"2026-03-02T18:35:44.295936","MEAN_MOTION":15.40335051,"ECCENTRICITY":0.0007277,"INCLINATION":97.4033,"RA_OF_ASC_NODE":151.9962,"ARG_OF_PERICENTER":218.677,"MEAN_ANOMALY":141.3956,"EPHEMERIS_TYPE":0,"CLASSIFICATION_TYPE":"U","NORAD_CAT_ID":62631,"ELEMENT_SET_NO":999,"REV_AT_EPOCH":6317,"BSTAR":0.0032135,"MEAN_MOTION_DOT":0.00131712,"MEAN_MOTION_DDOT":0},{"OBJECT_NAME":"PELICAN-3","OBJECT_ID":"2025-188A","EPOCH":"2026-03-02T15:51:09.282240","MEAN_MOTION":15.40637623,"ECCENTRICITY":0.0003169,"INCLINATION":97.2276,"RA_OF_ASC_NODE":139.2926,"ARG_OF_PERICENTER":183.0757,"MEAN_ANOMALY":177.0471,"EPHEMERIS_TYPE":0,"CLASSIFICATION_TYPE":"U","NORAD_CAT_ID":65315,"ELEMENT_SET_NO":999,"REV_AT_EPOCH":2891,"BSTAR":0.00010375,"MEAN_MOTION_DOT":4.143e-5,"MEAN_MOTION_DDOT":0},{"OBJECT_NAME":"PELICAN-4","OBJECT_ID":"2025-188B","EPOCH":"2026-03-02T03:45:23.655456","MEAN_MOTION":15.40610117,"ECCENTRICITY":0.00054269,"INCLINATION":97.2317,"RA_OF_ASC_NODE":138.8769,"ARG_OF_PERICENTER":116.0341,"MEAN_ANOMALY":244.1465,"EPHEMERIS_TYPE":0,"CLASSIFICATION_TYPE":"U","NORAD_CAT_ID":65316,"ELEMENT_SET_NO":999,"REV_AT_EPOCH":2883,"BSTAR":0.00028389455,"MEAN_MOTION_DOT":0.00011483,"MEAN_MOTION_DDOT":0}]
